{
  "links" : {
    "next" : "https://api.nasa.gov/neo/rest/v1/feed?start_date=2008-10-16&end_date=2008-10-16&detailed=true&api_key=t0TVs3DtDT2H8Oy2Zy8m2eVrNsAVKAexjcZXUckd",
    "prev" : "https://api.nasa.gov/neo/rest/v1/feed?start_date=2008-10-14&end_date=2008-10-14&detailed=true&api_key=t0TVs3DtDT2H8Oy2Zy8m2eVrNsAVKAexjcZXUckd",
    "self" : "https://api.nasa.gov/neo/rest/v1/feed?start_date=2008-10-15&end_date=2008-10-15&detailed=true&api_key=t0TVs3DtDT2H8Oy2Zy8m2eVrNsAVKAexjcZXUckd"
  },
  "element_count" : 9,
  "near_earth_objects" : {
    "2008-10-15" : [ {
      "links" : {
        "self" : "https://api.nasa.gov/neo/rest/v1/neo/3430385?api_key=t0TVs3DtDT2H8Oy2Zy8m2eVrNsAVKAexjcZXUckd"
      },
      "neo_reference_id" : "3430385",
      "name" : "(2008 TX9)",
      "nasa_jpl_url" : "http://ssd.jpl.nasa.gov/sbdb.cgi?sstr=3430385",
      "absolute_magnitude_h" : 26.2,
      "estimated_diameter" : {
        "kilometers" : {
          "estimated_diameter_min" : 0.0152951935,
          "estimated_diameter_max" : 0.0342010925
        },
        "meters" : {
          "estimated_diameter_min" : 15.2951935344,
          "estimated_diameter_max" : 34.201092472
        },
        "miles" : {
          "estimated_diameter_min" : 0.0095039897,
          "estimated_diameter_max" : 0.021251567
        },
        "feet" : {
          "estimated_diameter_min" : 50.1810827555,
          "estimated_diameter_max" : 112.2083122258
        }
      },
      "is_potentially_hazardous_asteroid" : false,
      "close_approach_data" : [ {
        "close_approach_date" : "2008-10-15",
        "epoch_date_close_approach" : 1224054000000,
        "relative_velocity" : {
          "kilometers_per_second" : "10.6026139779",
          "kilometers_per_hour" : "38169.4103204414",
          "miles_per_hour" : "23716.9872071654"
        },
        "miss_distance" : {
          "astronomical" : "0.0292645545",
          "lunar" : "11.3839120865",
          "kilometers" : "4377915",
          "miles" : "2720310.25"
        },
        "orbiting_body" : "Earth"
      } ],
      "orbital_data" : {
        "orbit_id" : "8",
        "orbit_determination_date" : "2017-04-06 09:02:39",
        "orbit_uncertainty" : "8",
        "minimum_orbit_intersection" : ".0173054",
        "jupiter_tisserand_invariant" : "3.754",
        "epoch_osculation" : "2454748.5",
        "eccentricity" : ".510365486605094",
        "semi_major_axis" : "1.912726895250855",
        "inclination" : "7.65187761540786",
        "ascending_node_longitude" : "199.9137789466015",
        "orbital_period" : "966.2241181044772",
        "perihelion_distance" : ".936537102613502",
        "perihelion_argument" : "223.3586091757618",
        "aphelion_distance" : "2.888916687888209",
        "perihelion_time" : "2454786.359533979861",
        "mean_anomaly" : "345.8941295529985",
        "mean_motion" : ".3725843655261288",
        "equinox" : "J2000"
      }
    }, {
      "links" : {
        "self" : "https://api.nasa.gov/neo/rest/v1/neo/3438957?api_key=t0TVs3DtDT2H8Oy2Zy8m2eVrNsAVKAexjcZXUckd"
      },
      "neo_reference_id" : "3438957",
      "name" : "(2008 VG14)",
      "nasa_jpl_url" : "http://ssd.jpl.nasa.gov/sbdb.cgi?sstr=3438957",
      "absolute_magnitude_h" : 20.3,
      "estimated_diameter" : {
        "kilometers" : {
          "estimated_diameter_min" : 0.2315021222,
          "estimated_diameter_max" : 0.5176544822
        },
        "meters" : {
          "estimated_diameter_min" : 231.5021222103,
          "estimated_diameter_max" : 517.6544821978
        },
        "miles" : {
          "estimated_diameter_min" : 0.1438487052,
          "estimated_diameter_max" : 0.3216554833
        },
        "feet" : {
          "estimated_diameter_min" : 759.5214226325,
          "estimated_diameter_max" : 1698.3415313737
        }
      },
      "is_potentially_hazardous_asteroid" : false,
      "close_approach_data" : [ {
        "close_approach_date" : "2008-10-15",
        "epoch_date_close_approach" : 1224054000000,
        "relative_velocity" : {
          "kilometers_per_second" : "4.3781561254",
          "kilometers_per_hour" : "15761.3620514109",
          "miles_per_hour" : "9793.4974368892"
        },
        "miss_distance" : {
          "astronomical" : "0.3311485132",
          "lunar" : "128.8167724609",
          "kilometers" : "49539112",
          "miles" : "30782176"
        },
        "orbiting_body" : "Earth"
      } ],
      "orbital_data" : {
        "orbit_id" : "14",
        "orbit_determination_date" : "2017-04-06 09:02:13",
        "orbit_uncertainty" : "5",
        "minimum_orbit_intersection" : ".291503",
        "jupiter_tisserand_invariant" : "3.052",
        "epoch_osculation" : "2458000.5",
        "eccentricity" : ".5608439011247925",
        "semi_major_axis" : "2.805411951413208",
        "inclination" : "10.07501238178699",
        "ascending_node_longitude" : "259.8409916412702",
        "orbital_period" : "1716.300745317802",
        "perihelion_distance" : "1.232013768320507",
        "perihelion_argument" : "113.2322220761416",
        "aphelion_distance" : "4.378810134505908",
        "perihelion_time" : "2458180.728362986266",
        "mean_anomaly" : "322.1964793454415",
        "mean_motion" : ".2097534485037702",
        "equinox" : "J2000"
      }
    }, {
      "links" : {
        "self" : "https://api.nasa.gov/neo/rest/v1/neo/3561032?api_key=t0TVs3DtDT2H8Oy2Zy8m2eVrNsAVKAexjcZXUckd"
      },
      "neo_reference_id" : "3561032",
      "name" : "(2011 GG3)",
      "nasa_jpl_url" : "http://ssd.jpl.nasa.gov/sbdb.cgi?sstr=3561032",
      "absolute_magnitude_h" : 21.2,
      "estimated_diameter" : {
        "kilometers" : {
          "estimated_diameter_min" : 0.1529519353,
          "estimated_diameter_max" : 0.3420109247
        },
        "meters" : {
          "estimated_diameter_min" : 152.9519353442,
          "estimated_diameter_max" : 342.0109247198
        },
        "miles" : {
          "estimated_diameter_min" : 0.095039897,
          "estimated_diameter_max" : 0.2125156703
        },
        "feet" : {
          "estimated_diameter_min" : 501.8108275547,
          "estimated_diameter_max" : 1122.0831222578
        }
      },
      "is_potentially_hazardous_asteroid" : false,
      "close_approach_data" : [ {
        "close_approach_date" : "2008-10-15",
        "epoch_date_close_approach" : 1224054000000,
        "relative_velocity" : {
          "kilometers_per_second" : "15.4231321574",
          "kilometers_per_hour" : "55523.2757666047",
          "miles_per_hour" : "34500.0043228661"
        },
        "miss_distance" : {
          "astronomical" : "0.4572716821",
          "lunar" : "177.878692627",
          "kilometers" : "68406872",
          "miles" : "42506060"
        },
        "orbiting_body" : "Earth"
      } ],
      "orbital_data" : {
        "orbit_id" : "7",
        "orbit_determination_date" : "2017-04-06 08:53:50",
        "orbit_uncertainty" : "8",
        "minimum_orbit_intersection" : ".38331",
        "jupiter_tisserand_invariant" : "4.406",
        "epoch_osculation" : "2455654.5",
        "eccentricity" : ".1319071707938114",
        "semi_major_axis" : "1.493006253161976",
        "inclination" : "29.87691995434616",
        "ascending_node_longitude" : "7.128324772022303",
        "orbital_period" : "666.3323015242801",
        "perihelion_distance" : "1.296068022329911",
        "perihelion_argument" : "67.80945530899631",
        "aphelion_distance" : "1.689944483994041",
        "perihelion_time" : "2455480.157328125256",
        "mean_anomaly" : "94.19228473740868",
        "mean_motion" : ".5402709716705549",
        "equinox" : "J2000"
      }
    } ]
  }
}